ELEKTRO-L 3             
1 44903U 19095A   26177.53815831 -.00000085  00000+0  00000+0 0  9993
2 44903   0.2811  81.9651 0001516   2.5316  99.8706  1.00272481 23801
GONETS-M 14             
1 44905U 19096A   26177.78847971 -.00000017  00000+0 -19363-3 0  9995
2 44905  82.5235  78.6883 0013913 127.6810 232.5533 12.42870018294877
GONETS-M 15             
1 44906U 19096B   26177.73737332 -.00000024  00000+0 -24904-3 0  9995
2 44906  82.5255  79.1831 0015334 150.6286 209.5659 12.42871558294830
GONETS-M 16             
1 44907U 19096C   26177.76342779  .00000052  00000+0  30551-3 0  9990
2 44907  82.5201  78.1146 0010153 192.0734 168.0103 12.42892053294827
RS-44 & BREEZE-KM R/B   
1 44909U 19096E   26177.69966103  .00000017  00000+0  17228-4 0  9995
2 44909  82.5225 333.3830 0218469 122.0146 240.2387 12.79749029303564
JILIN-1 KUANFU 01       
1 45016U 20003A   26177.69081269  .00003520  00000+0  21580-3 0  9993
2 45016  97.5029 251.4605 0008187 268.8142  91.2150 15.10771288356763
XINGYUN-2 01            
1 45602U 20028A   26177.73917563  .00002106  00000+0  12687-3 0  9998
2 45602  97.4861 169.9505 0009452 160.2464 199.9135 15.11840820336281
XINGYUN-2 02            
1 45603U 20028B   26177.71948576  .00000741  00000+0  47429-4 0  9991
2 45603  97.5070 183.5434 0009311 233.2680 126.7696 15.11568847336278
HAIYANG-1D              
1 45721U 20036A   26177.74043527  .00000165  00000+0  74185-4 0  9995
2 45721  98.4551 119.2121 0003854 108.0624 252.0982 14.34176296316349
M2 PATHFINDER           
1 45727U 20037E   26177.48993696  .00002926  00000+0  21205-3 0  9995
2 45727  97.8135   8.8257 0012564 119.4503 240.7978 15.04708030326894
GAOFEN DUOMO (GFDM)     
1 45856U 20042A   26177.76036147  .00000842  00000+0  12661-3 0  9995
2 45856  97.7746 237.2984 0012157  47.2320 312.9911 14.76892710322423
ZIYUAN 3-03 (ZY 3-03)   
1 45939U 20051A   26177.72168494  .00006719  00000+0  30302-3 0  9995
2 45939  97.2834 245.1384 0002236 295.8956  64.2049 15.21331778328791
NEMO-HD                 
1 46277U 20061F   26177.71733269  .00010708  00000+0  23063-3 0  9998
2 46277  97.1922 239.5744 0001804  74.6252 285.5196 15.44778516323452
NAPA-1                  
1 46320U 20061BA  26177.73193514  .00070854  00000+0  60579-3 0  9993
2 46320  97.2459 252.2321 0001671 177.2866 182.8406 15.69256949323230
JILIN-1 GAOFEN 3E       
1 46457U 20065D   26177.69024258  .00064784  00000+0  66099-3 0  9999
2 46457  97.2242 230.5251 0012623 128.1550 232.0849 15.64782951321246
JILIN-1 GAOFEN 3F       
1 46458U 20065E   26177.73223296  .00054734  00000+0  62554-3 0  9994
2 46458  97.2196 227.8570 0014121 116.6075 243.6632 15.61890153321190
JILIN-1 GAOFEN 3G       
1 46459U 20065F   26177.63237998  .00099479  00000+0  72501-3 0  9996
2 46459  97.2262 234.7214 0006089  25.3753 334.7809 15.72975407321422
JILIN-1 GAOFEN 3H       
1 46460U 20065G   26177.68950772  .00079479  00000+0  68089-3 0  9999
2 46460  97.2208 231.0489 0003534 285.7833  74.3039 15.69173095321376
HAIYANG-2C              
1 46469U 20066A   26177.70868113 -.00000104  00000+0 -20762-4 0  9997
2 46469  65.9955 191.5775 0008555 237.5788 122.4453 13.83376167290814
HJ-2A                   
1 46478U 20067A   26177.72047681  .00001232  00000+0  18384-3 0  9996
2 46478  97.8828 255.8677 0002602 219.5897 140.5123 14.76528951309662
HJ-2B                   
1 46479U 20067B   26177.75708829  .00000628  00000+0  97099-4 0  9997
2 46479  97.8892 256.9329 0001489  98.9892 261.1487 14.76569218309671
GONETS-M 17             
1 46486U 20068A   26177.70816391  .00000011  00000+0  10010-4 0  9999
2 46486  82.4992 341.5786 0022698  17.2821 342.9026 12.42873353260345
GONETS-M 18             
1 46487U 20068B   26177.75231532  .00000069  00000+0  42892-3 0  9998
2 46487  82.4946 340.6654 0019898  13.9504 346.2121 12.42874170260338
GONETS-M 19             
1 46488U 20068C   26177.72759809  .00000030  00000+0  14346-3 0  9999
2 46488  82.4971 341.1329 0013930  30.0911 330.0967 12.42892345260439
DEKART                  
1 46493U 20068H   26177.77425466  .00012010  00000+0  32800-3 0  9995
2 46493  97.8737 187.7316 0007275 242.9450 117.1051 15.37554728317249
NORBI                   
1 46494U 20068J   26177.72005876  .00023206  00000+0  43214-3 0  9990
2 46494  97.8624 194.5264 0006071 205.3170 154.7782 15.48844110317683
SALSAT                  
1 46495U 20068K   26177.49875036  .00007768  00000+0  27079-3 0  9994
2 46495  97.8850 181.1309 0007810 268.2261  91.8084 15.29924136316780
