OBJECT_NAME,OBJECT_ID,EPOCH,MEAN_MOTION,ECCENTRICITY,INCLINATION,RA_OF_ASC_NODE,ARG_OF_PERICENTER,MEAN_ANOMALY,EPHEMERIS_TYPE,CLASSIFICATION_TYPE,NORAD_CAT_ID,ELEMENT_SET_NO,REV_AT_EPOCH,BSTAR,MEAN_MOTION_DOT,MEAN_MOTION_DDOT
ELEKTRO-L 3,2019-095A,2026-06-26T12:54:56.877984,1.00272481,.0001516,0.2811,81.9651,2.5316,99.8706,0,U,44903,999,2380,0,-.85E-6,0
GONETS-M 14,2019-096A,2026-06-26T18:55:24.646944,12.42870018,.0013913,82.5235,78.6883,127.6810,232.5533,0,U,44905,999,29487,-.19363E-3,-.17E-6,0
GONETS-M 15,2019-096B,2026-06-26T17:41:49.054848,12.42871558,.0015334,82.5255,79.1831,150.6286,209.5659,0,U,44906,999,29483,-.24904E-3,-.24E-6,0
GONETS-M 16,2019-096C,2026-06-26T18:19:20.161056,12.42892053,.0010153,82.5201,78.1146,192.0734,168.0103,0,U,44907,999,29482,.30551E-3,.52E-6,0
RS-44 & BREEZE-KM R/B,2019-096E,2026-06-26T16:47:30.712992,12.79749029,.0218469,82.5225,333.3830,122.0146,240.2387,0,U,44909,999,30356,.17228E-4,.17E-6,0
JILIN-1 KUANFU 01,2020-003A,2026-06-26T16:34:46.216416,15.10771288,.0008187,97.5029,251.4605,268.8142,91.2150,0,U,45016,999,35676,.2158E-3,.352E-4,0
XINGYUN-2 01,2020-028A,2026-06-26T17:44:24.774432,15.11840820,.0009452,97.4861,169.9505,160.2464,199.9135,0,U,45602,999,33628,.12687E-3,.2106E-4,0
XINGYUN-2 02,2020-028B,2026-06-26T17:16:03.569664,15.11568847,.0009311,97.5070,183.5434,233.2680,126.7696,0,U,45603,999,33627,.47429E-4,.741E-5,0
HAIYANG-1D,2020-036A,2026-06-26T17:46:13.607328,14.34176296,.0003854,98.4551,119.2121,108.0624,252.0982,0,U,45721,999,31634,.74185E-4,.165E-5,0
M2 PATHFINDER,2020-037E,2026-06-26T11:45:30.553344,15.04708030,.0012564,97.8135,8.8257,119.4503,240.7978,0,U,45727,999,32689,.21205E-3,.2926E-4,0
GAOFEN DUOMO (GFDM),2020-042A,2026-06-26T18:14:55.231008,14.76892710,.0012157,97.7746,237.2984,47.2320,312.9911,0,U,45856,999,32242,.12661E-3,.842E-5,0
ZIYUAN 3-03 (ZY 3-03),2020-051A,2026-06-26T17:19:13.578816,15.21331778,.0002236,97.2834,245.1384,295.8956,64.2049,0,U,45939,999,32879,.30302E-3,.6719E-4,0
NEMO-HD,2020-061F,2026-06-26T17:12:57.544416,15.44778516,.0001804,97.1922,239.5744,74.6252,285.5196,0,U,46277,999,32345,.23063E-3,.10708E-3,0
NAPA-1,2020-061BA,2026-06-26T17:33:59.196096,15.69256949,.0001671,97.2459,252.2321,177.2866,182.8406,0,U,46320,999,32323,.60579E-3,.70854E-3,0
JILIN-1 GAOFEN 3E,2020-065D,2026-06-26T16:33:56.958912,15.64782951,.0012623,97.2242,230.5251,128.1550,232.0849,0,U,46457,999,32124,.66099E-3,.64784E-3,0
JILIN-1 GAOFEN 3F,2020-065E,2026-06-26T17:34:24.927744,15.61890153,.0014121,97.2196,227.8570,116.6075,243.6632,0,U,46458,999,32119,.62554E-3,.54734E-3,0
JILIN-1 GAOFEN 3G,2020-065F,2026-06-26T15:10:37.630272,15.72975407,.0006089,97.2262,234.7214,25.3753,334.7809,0,U,46459,999,32142,.72501E-3,.99479E-3,0
JILIN-1 GAOFEN 3H,2020-065G,2026-06-26T16:32:53.467008,15.69173095,.0003534,97.2208,231.0489,285.7833,74.3039,0,U,46460,999,32137,.68089E-3,.79479E-3,0
HAIYANG-2C,2020-066A,2026-06-26T17:00:30.049632,13.83376167,.0008555,65.9955,191.5775,237.5788,122.4453,0,U,46469,999,29081,-.20762E-4,-.104E-5,0
HJ-2A,2020-067A,2026-06-26T17:17:29.196384,14.76528951,.0002602,97.8828,255.8677,219.5897,140.5123,0,U,46478,999,30966,.18384E-3,.1232E-4,0
HJ-2B,2020-067B,2026-06-26T18:10:12.428256,14.76569218,.0001489,97.8892,256.9329,98.9892,261.1487,0,U,46479,999,30967,.97099E-4,.628E-5,0
GONETS-M 17,2020-068A,2026-06-26T16:59:45.361824,12.42873353,.0022698,82.4992,341.5786,17.2821,342.9026,0,U,46486,999,26034,.1001E-4,.11E-6,0
GONETS-M 18,2020-068B,2026-06-26T18:03:20.043648,12.42874170,.0019898,82.4946,340.6654,13.9504,346.2121,0,U,46487,999,26033,.42892E-3,.69E-6,0
GONETS-M 19,2020-068C,2026-06-26T17:27:44.474976,12.42892345,.001393,82.4971,341.1329,30.0911,330.0967,0,U,46488,999,26043,.14346E-3,.3E-6,0
DEKART,2020-068H,2026-06-26T18:34:55.602624,15.37554728,.0007275,97.8737,187.7316,242.9450,117.1051,0,U,46493,999,31724,.328E-3,.1201E-3,0
NORBI,2020-068J,2026-06-26T17:16:53.076864,15.48844110,.0006071,97.8624,194.5264,205.3170,154.7782,0,U,46494,999,31768,.43214E-3,.23206E-3,0
SALSAT,2020-068K,2026-06-26T11:58:12.031104,15.29924136,.000781,97.8850,181.1309,268.2261,91.8084,0,U,46495,999,31678,.27079E-3,.7768E-4,0
